#dP2020  3 30  0  0  0.00000000      96 __u+U ITR00 FIT  IAC
## 2099  86400.00000000   900.00000000 58938 0.0000000000000
+  113   C06C07C08C09C10C11C12C13C14C16C19C20C21C22C23C24C25
+        C26C27C28C29C30C32C33C34C35C36C37C38C39C40C43C44C45
+        C46E01E02E03E04E05E07E08E09E11E12E13E14E15E18E21E24
+        E25E26E27E30E31E33E36G01G02G03G04G05G06G07G08G09G10
+        G11G12G13G14G15G16G17G18G19G20G21G22G23G24G25G26G27
+        G28G29G30G31G32R01R02R03R04R05R07R08R09R11R12R13R14
+        R15R16R17R18R19R20R21R22R23R24R26  0  0  0  0  0  0
++         7  9  8  9  7  6  6  8  7  8  8  8  6  6  6  6  7
++         7  8  7  8  7  7  7  7  8  8  8 12 13  9 10  8 10
++        11  7  5  6  6  7  6  5  7  7  7  7  5  6  8  7  8
++         6  7  5  6  6  6  6  6  5  6  7  7  5  6  6  6  6
++         6  5  6  6  6  7  7  0  5  7  6  6  0  6  5  6  6
++         6  6  6  6  6  8  6  5  6  7  6  6  6  6  6  6  6
++         6  8  7  7  8  9  7  8  7  8  0  0  0  0  0  0  0
%c M  cc GPS ccc cccc cccc cccc cccc ccccc ccccc ccccc ccccc
%c cc cc ccc ccc cccc cccc cccc cccc ccccc ccccc ccccc ccccc
%f  0.0000000  0.000000000  0.00000000000  0.000000000000000
%f  0.0000000  0.000000000  0.00000000000  0.000000000000000
%i    0    0    0    0      0      0      0      0         0
%i    0    0    0    0      0      0      0      0         0
/* INFORMATION & ANALYSIS CENTER (IAC)      ULTRA-RAPID DATA
/* S/V CLOCKS ARE ALIGNED TO GNSS TIME                      
/* G:C1WC2W R:C1PC2P E:C1XC5X C:C2IC6I J:C1CC2S             
/* PCV:IGS14_2097 OL/AL:FES2004  NONE     YN ORB:CoN CLK:CoN
*  2020 03 30 15 45  0.00000000
PC06 -20764.508785  36960.895905    272.787080    241.781016
PC07  -9158.925156  27976.905595 -29838.040583    901.715478
PC08 -21522.903995  19223.218107  30710.146993   -178.285551
PC09 -11077.059676  38079.420081 -14610.833415    437.978028
PC10   4186.318966  35458.260645 -21939.593165   -806.840348
PC11   4345.162019  16243.236761  22322.502448   -272.337533
PC12 -12742.741232  22509.305391  10485.505643    340.747249
PC13  -5606.190962  23100.372406  34893.131761    353.249271
PC14  10318.744930  25526.278542  -4324.277665    248.567747
PC16 -17448.633628  38277.086854  -3997.117118   -701.689824
PC19 -14887.637283 -19847.705036  12820.715750    367.328415
PC20  -4816.468000 -27211.923875  -3973.716120   -931.912829
PC21  -8562.600807  18545.225392  19026.421471   -229.334252
PC22 -16512.676697   -860.359514  22493.305657   -852.770293
PC23  26859.066287   1880.792492   7334.363438   -934.324658
PC24   4300.699777  17101.865436 -21644.491287   -878.669170
PC25  22798.959676  12741.243947  -9861.729281   -565.999781
PC26 -14933.022344  11408.630401 -20627.196647    625.737158
PC27  19105.547555 -20259.360290  -1615.577065    304.260630
PC28  22322.310928  -7241.576728  15106.597869    295.237770
PC29 -12856.490613  -9467.801140 -22891.319843    208.087587
PC30   4181.754099 -21631.992795 -17110.787745    294.584500
PC32   8381.689825 -18664.897131 -18961.387941   -915.081889
PC33  14949.931807  19817.428163 -12718.123739   -889.072929
PC34  -3865.882489  21519.800720  17354.037565   -590.801043
PC35 -22079.547169   7858.680082 -15176.634829   -915.076238
PC36 -22334.264074 -13374.415881  10077.100683   -821.195915
PC37  15835.114286 -10693.187579  20356.418719   -850.254392
PC38 -17804.097299  22344.002827  30997.465963     69.612849
PC39 -14574.770750  39392.401232  -4265.777564 999999.999999
PC40   1214.913820  33471.644152 -25518.157904     30.596970
PC43  12659.870319   9869.018119  22824.461584   -128.257745
PC44 -18568.983396  20811.293864   1419.769554 999999.999999
PC45 -26856.458006  -1846.962400  -7318.342878 999999.999999
PC46  -4799.620230 -16998.227541  21601.087783    911.459153
PE01 -11844.294943 -22636.057773  14940.814524   -825.569518
PE02  11921.072343  22650.841859 -14886.022366    122.984409
PE03   2112.989956  27991.875930  -9365.584534   -282.476041
PE04 -13749.856693 -13796.011725  22296.516388   -495.495631
PE05 -10898.778459  25935.896215   9206.637966   -392.852447
PE07  17439.478173  -8756.828101 -22249.908572   -361.333741
PE08  13792.259242  13464.973683 -22455.409133   6199.416875
PE09 -17248.702276   8957.807248  22328.393852   6108.982864
PE11 -28154.586035   8521.166075  -3415.310087   2003.162945
PE12 -21012.014501  -5977.183513 -19977.921831   5878.716869
PE13  28117.425520  -8464.592847   3691.775290    399.659981
PE14 -15264.577696  22395.464947  -3102.414961   -959.409154
PE15  21128.981949   5720.763930  19931.732382    872.195275
PE18   4520.926300 -27452.264319 -11859.697386  -1057.726634
PE21   7074.188518 -15213.013163  24378.887871   -590.777012
PE24 -22194.729516  -1381.957523 -19540.719655   5533.309352
PE25  -7184.867032  15140.266053 -24399.925490   -508.198344
PE26  18386.131988 -17737.180929 -14938.308205   3359.556135
PE27  22127.453519   1200.623767  19625.777498    251.364654
PE30  23955.316116  17118.485484   3108.567848   4025.831501
PE31 -24113.623432 -16831.916305  -3367.437019   -472.139702
PE33  -1748.901745 -16542.605923 -24471.448801   -468.959331
PE36 -18606.100893  17700.489365  14740.687666    579.367789
PG01  -7721.395915 -13919.220494 -21529.630015   -342.895475
PG02 -15928.077625  14121.207885  16483.292045   -430.939031
PG03 -12406.714672 -23163.280724  -4277.413453   -131.790209
PG04  -3411.485033 -19862.912344  17295.892889    -69.402978
PG05  -4543.877710  17231.760628  19497.881324     -9.994942
PG06 -24385.298192   7268.204273   7753.685916   -242.314466
PG07 -23375.106096  -6602.463648  11592.166031   -247.433877
PG08   4978.602635 -24603.927600  -8251.278323    -28.930259
PG09 -11975.331990 -10261.935111  21318.733179   -187.514573
PG10  18477.269442   3890.387307 -18686.520045   -294.297696
PG11   2896.961462 -18944.871434 -18991.727988   -319.279548
PG12   9372.806089  24183.565446  -6357.107980    134.883548
PG13 -12855.696455  23084.214613  -2312.525046     -1.789006
PG14  17910.579672 -15982.156293 -10818.518482    -22.886388
PG15  -1630.196135  24850.665769  -8975.819002   -241.400707
PG16   5302.056649 -16991.967399  19343.964646   -140.899439
PG17 -17624.934221   7315.718054 -18031.334091    240.706593
PG18  19238.125118   9729.946229  15538.806559    138.120527
PG19 -18647.788562  13881.607556 -13137.797088   -178.772179
PG20  21351.988948  12532.128627  -9979.361228    527.851534
PG21  23487.345533   5010.326385  11822.677621    -20.799583
PG22  -7021.934351 -22585.567648 -11985.012264   -785.288955
PG23      0.000000      0.000000      0.000000 999999.999999
PG24   6099.710301  14958.445861 -21314.281090    -11.030863
PG25  17022.787413  20199.164373   3690.827378     -6.211973
PG26  12932.334428  -8561.849371  21530.638223    177.811913
PG27  12396.641595 -23185.238260   1967.610552   -253.081507
PG28 -17092.641032  -3809.621796 -19340.171012    729.120969
PG29   9084.844727  12775.400531  21398.463921    -69.106829
PG30 -26655.669495    672.926945    782.543089   -187.214143
PG31  23616.551712  -8099.665431   9658.419108    -32.791070
PG32  17712.960880  -8501.423096 -17729.965039    248.400950
PR01 -10947.828750 -11102.398085  20197.924030     59.282906
PR02  -8933.014854  11815.327846  20825.275866    419.343005
PR03  -1706.890996  24247.384685   7857.584188     12.437641
PR04   6416.574644  22782.880789  -9483.259693     43.798756
PR05  10819.734468   8493.316638 -21472.468238     47.714231
PR07   1395.792569 -24402.419223  -7187.881127    -34.920701
PR08  -6481.196755 -22750.024863   9584.485352    -51.331991
PR09  14301.497805  -4497.892539  20628.081610    124.625602
PR11 -16774.328550 -14549.084221  12602.962657    -18.490096
PR12 -23542.750955  -9030.117651  -3748.452876    118.390116
PR13 -17062.821678   2086.975237 -18867.454840    -36.715076
PR14   -555.176349  11737.329231 -22633.461688     49.648215
PR15  16095.593154  14595.621224 -13353.029283    106.242646
PR16  23802.852134   8344.108012   4198.353611     -2.460759
PR17 -12989.539976  16791.816198  14130.140685    313.316191
PR18   2294.093981  10959.244167  22942.018511     30.301307
PR19  16225.119735   -108.034399  19683.305315    -86.283733
PR20  21943.577338 -12537.071128   3263.310640   -407.907574
PR21  12384.747999 -16650.052590 -14844.355511   -114.747535
PR22  -4936.087068  -9234.276057 -23248.191643    -19.927708
PR23 -19765.812946   5152.573444 -15289.223556    295.944097
PR24 -21292.685112  14050.391482   -750.910027    -49.706425
PR26  21851.047617 -10734.276228   7662.164622   -401.059958
EOF
